export default {
  kpqi: 
 `KPQI 120045Z AUTO 05005KT 5SM -SN BKN024 OVC035 M05/M11 A3027 RMK A02 SNB31 PO000<br>
  KPQI 120056z AUTO 05005KT 6SM -SN OVC024 -5.6/-10.6 A3026 RMK A02 SNB31 SLP284 P0000<br>
  KPQI 120156Z AUTO 07004KT 5SM -SN OVC028 -5.6/-9.4 A3025 RMK A02 SLP280 PO000<br>
  KPQI 120220Z AUTO 07007KT 1 3/4SM -SN BKNO16 OVCO23 M06/M09 A3025 RMK A02 PO000<br>
  KPQI 120226Z AUTO 06007KT 2SM -SN BR BKNO16 OVC023 M06/MO8 A3025 RMK A02 PO000<br>
  KPQI 120247Z AUTO 04005KT 1 1/2SM -SN BR OVC016 M07/MO8 A3023 RMK A02 PO000<br>
  KPQI 120256Z AUTO 04006KT 1 1/2SM -SN BR OVC016 -6.7/-8.3 A3023 RMK A02 SLP273 PO000 60000 58011<br>
  KPQI 120356Z AUTO 04009KT 1 1/2SM -SN BR OVC016 -6.7/-8.3 A3020 RMK A02 VIS 1 1/4V2 1/2 SLP262 PO000<br>
  KPQI 120410Z AUTO 04008KT 1 1/2SM -SN BR OVCO14 M07/MO8 A3020 RMK A02 PO000<br>
  KPQI 120423Z AUTO 04007KT 3/4SM -SN BR BKNO10 Ovc014 M07/M08 A3018 RMK A02 CIG O06V013 PO000 RVRNO<br>
  KPQI 120431Z AUTO 04007KT 3/4SM -SN BR BKNO08 OVC014 M07/M08 A3018 RMK A02 CIG O06V010 PO000 RVRNO<br>
  KPQI 120451Z AUTO 05007KT 1/2SM SN FZFG OVC006 M07/M08 A3016 RMK A02 PO001 400281072 RVRNO<br>
  KPQI 120456Z AUTO 04006KT 1/2SM SN FZFG OVC006 -6.7/-8.3 A3016 RMK A02 SLP249 PO001 400281072 RVRNO<br>
  KPQI 120507Z AUTO 03009KT 3/4SM -SN BR OVC006 MO7/M08 A3016 RMK A02 CIG 004V008 P0001 RVRNO<br>
  KPQI 120517Z AUTO 03006KT 1SM -SN BR OVC008 M07/M08 A3016 RMK A02 CIG 004V009 PO001 RVRNO<br>
  KPQI 120544Z AUTO 02007KT 3/4SM -SN BR OVC008 MO7/M08 A3014 RMK A02 CIG 007V010P0002 RVRNO<br>
  KPQI 120556Z AUTO 01006KT 3/4SM -SN BR OVC008 -6.7/-8.3 A3014 RMK A02 CIG 005V010 SLP242 PO003 60004 11044 21072 56020 RVRNO<br>
  KPQI 120614Z AUTO 02008KT 1/2SM SN FZFG OVC006 MO7/M08 A3013 RMK A02 PO001 RVRNO<br>
  KPQI 120624Z AUTO 3/4SM -SN BR OVC006 MO7/M08 A3012 RMK A02 PO001 RVRNO<br>
  KPQI 120656Z AUTO 03007KT 3/4SM -SN BR OVC006 -6.7/-8.3 A3008 RMK A02 CIG 004V08 PRESFR SLP223 PO002 RVRNO<br>
  KPQI 120705Z AUTO 03008KT 1/2SM SN FZFG OVC006 MO7/MO8 A3007 RMK A02 CIG 004V008 PRESFR PO001 RVRNO<br>
  KPQI 120717Z AUTO 3/4SM -SN BR OVC06 M07/M08 A3006 RMK A02 CIG 004V008 PO002 RVRNO<br>
  KPQI 120726Z AUTO 03009KT 1SM -SN BR OVC006 M07/M08 A3005 RMK A02 CIG 004V008 PO002 RVRNO<br>
  KPQI 120756Z AUTO 3/4SM -SN BR OVC006 -6.7/-7.8 A3002 RMK A02 CIG 006V009 SLP202 PO002 RVRNO<br>
  KPQI 120856Z AUTO 0301OKT 1SM -SN BR OVC006 -6.7/-7.8 A2996 RMK A02 SLP181 PO002 60006 56041 RVRNO<br>
  KPQI 120929z AUTO 03008KT 1 1/4SM -SN BR OVCO08 M07/MO8 A2994 RMK A02 CIG 007V011 PO000<br>
  KPQI 120935Z AUTO 03008KT 1SM -SN BR OVC010 M07/M08 A2993 RMK A02 PO00 RVRNO<br>
  KPQI 120956Z AUTO 02009KT 1SM -SN BR OVCO10 -6.7/-7.8 A2992 RMK A02 SLP167 PO001 RVRNO<br>
  KPQI 121015Z AUTO 03011lKT 1 1/4SM -SN OVCO10 MO7/ A2989 RMK A02 PRESFR PO000<br>
  KPQI 121029Z AUTO 0301OKT 1SM -SN OVc010 MO7/ A2988 RMK A02 PO002 RVRNO<br>
  KPQI 121036Z AUTO 0301OKT 1 1/4SM -SN OVC010 MO7/ A2987 RMK A02 CIG 008V012 PO002<br>
  KPQI 121054Z AUTO 03009KT 2SM -SN SCT011 OVCO16 M07/ A2985 RMK A02 PRESFR PO003<br>
  KPQI 121056Z AUTO 03008KT 2SM -SN OVc014 MO7/ A2984 RMK A02 PRESFR SLP141 PO003 T1067<br>
  KPQI 121113Z AUTO 04009KT 2 1/2SM -SN BR SCT016 OVC025 MO7/M08 A2982 RMK A02 PO000<br>
  KPQI 121127Z AUTO 03008KT 1 1/4SM -SN BR OVC023 M06/M08 A2982 RMK A02 PO000<br>
  KPQI 121156Z AUTO 03008KT 1 1/4SM -SN BR OVC019 -6.1/-7.8 A2979 RMK A02 SLP121 P0000 60010 70014 11061 21067 58059<br>`,

  czbf: 
  `CZBF 120000Z AUTO 32003KT 280V340 9SM OVC095 -4.2/-12.9 A3030 RMK SLP266<br>
  CZBF 120100z AUTO 32003KT 230V030 9SM OVC090 -4.2/-13.2 A3031 RMK SLP267<br>
  CZBF 120200Z AUTO VRB02KT 9SM OVCO75 - 4.2/-12.0 A3031 RMK SLP269<br>
  CZBF 120300z AUTO 31004KT 280V340 9SM OVC065 -4.3/-11.4 A3030 RMK SLP266<br>
  CZBF 120349z AUTO 28003KT 250V330 9SM -SN OVC034 -4.3/-11.0 A3029 RMK SLP262<br>
  CZBF 120400z AUTO VRB02KT 9SM -SN OVC028 -4.5/-10.8 A3029 RMK SLP263<br>
  CZBF 120403Z AUTO 30003KT 260V340 5SM -SN OVC028 -4.6/-10.5 A3029 RMK SLP262<br>
  CZBF 120407Z AUTO 00000KT 2 1/2SM -SN OVC026 -4.8/-10.0 A3029 RMK SLP261 VIS VRB 1 1/4-3<br>
  CZBF 120409z AUTO VRB02KT 2 1/2SM -SN OVC024 -4.8/-9.8 A3029 RMK SLP262 VIS VRB 1 1/4-3<br>
  CZBF 120416z AUTO VRB02KT 3SM -SN OVC022 -5.0/-9.3 A3029 RMK SLP260<br>
  CZBF 120428Z AUTO 29003KT 260V330 2 1/4SM -SN ovc020 -5.3/-8.6 A3028 RMK SLP258 VIS VRB 1 1/4-3<br>
  CZBF 120447z AUTO 31003KT 280V350 1 3/4SM -SN ovc022 -5.5/-7.8 A3028 RMK SLP257 VIS VRB 1 1/4-3<br>
  CZBF 120500z AUTO 33003KT 300V010 1 1/4SM -SN ovc022 -5.8/-7.7 A3027 RMK PRESFR SLP253<br>
  CZBF 120554z AUTO VRB02KT 3/4SM -SN VV013 -5.8/-7.0 A3025 RMK SLP249<br>
  CZBF 120600Z AUTO VRB02KT 3/4SM -SN VVO12 -5.8/-7.0 A3025 RMK SLP248 PCPN 0.5MM PAST HR<br>
  CZBR 120652z AUTO 36002KT 3/4SM -SN VV010 -5.5/-6.5 A3023 RMK SLP241 PCPN 1.2MM PAST HR<br>
  CZBF 120700Z AUTO 06003KT 350V080 3/4SM -SN Vvo09 -5.4/-6.3 A3022 RMK SLP239 PCPN 1.2MM PAST HR<br>
  CZBF 120729z AUTO 08006KT 1SM -SN Vvo08 -5.2/-6.2 A3020 RMK SLP231 PCPN 1. OMM PAST HR<br>
  CZBF 120800z AUTO 09007KT 1SM -SN VVo09 -5.2/-6.1 A3018 RMK SLP225 PCPN 1.5MM PAST HR<br>
  CZBF 120807Z AUTO 07005KT 1SM -SN VVo10 -5.1/-5.9 A3017 RMK PRESFR SLP222 PCPN O.5MM PAST HR<br>
  CZBR 120809z AUTO 07005KT 3/4SM CZBF 120847z AUTO 03003KT 020V080 3/4SM -SN Vv007 -5.0/-5.8 A3014 RMK SLP211 PCPN 1.5MM PAST HR<br>
  CZBF 120900Z AUTO 04003KT 1/2SM SN VVo06 -4.9/-5.7 A3012 RMK PRESFR SLP205 PCPN 2.OMM PAST HR<br>
  CZBF 121000Z AUTO 07009G16KT 1/2SM SN VV004 -3.4/-4.1 A3007 RMK PRESFR SLP186 PCPN 2. OMM PAST HR<br>
  CZBF 121100Z AUTO 05007KT 5/8SM -SN VV006 -2.7/-3.3 A3003 RMK PRESFR SLP172 PCPN 2.8MM PAST HR<br>
  CZBF 121200Z AUTO 06012G22KT 1/2SM SN VV006 -1.1/-1.7 A2996 RMK SLP150 PCPN 0.8MM PAST HR<br>`,

  khul:
  `KHUL 120029Z AUTO 07004KT 3SM -SN OVC026 -5.0/-9.4 A3025 RMK A02 PO000<br>
  KHUL 120036Z AUTO 06006KT 2SM -SN OVC024 -5.0/-8.9 A3025 RMK A02 PO000<br>
  KHUL 120053Z AUTO 03006KT 1 1/2SM -SN OVC020 -5.0/-8.3 A3025 RMK A02 SLP253 PO000<br>
  KHUL 120101z AUTO 03004KT 1 1/4SM -SN OVC020 -5.6/-8.3 A3025 RMK A02 PO000<br>
  KHUL 120142Z AUTO 04005KT 2SM -SN BR OVC026 -5.6/-7.8 A3023 RMK A02 PO001<br>
  KHUL 120153Z AUTO 05008KT 2 1/2SM -SN OVC036 -5.6/-8.3 A3022 RMK A02 SLP242 PO002<br>
  KHUL 120203Z AUTO 05006KT 3SM -SN OVC040 -5.6/-8.3 A3021 RMK A02 PO000<br>
  KHUL 120253Z AUTO 05007KT 3SM -SN BR OVC033 -5.6/-7.8 A3019 RMK A02 SLP233 PO000 60002 56019<br>
  KHUL 120257Z AUTO 04006KT 2 1/2SM -SN BR OVC029 -5.6/-7.8 A3020 RMK A02 PO000<br>
  KHUL 120304Z AUTO 03008KT 1 1/4SM -SN BR OVC023 -5.6/-7.8 A3019 RMK A02 PO000<br>
  KHUL 120329Z AUTO 04007KT 1SM -SN BR VV014 -5.6/-7.8 A3018 RMK A02 P0000<br>
  KHUL 120343Z AUTO 03007KT 3/4SM -SN BR VV011 -5.6/-7.8 A3017 RMK A02 PO001<br>
  KHUL 120353Z AUTO 03006KT 1/2SM SN FZFG VV010 -6.1/-7.8 A3017 RMK A02 SLP225 PO002<br>
  KHUL 120400Z AUTO 03008KT 1/2SM SN FZFG VV008 -6.1/-7.8 A3016 RMK A02 PO000<br>
  KHUL 120444Z AUTO 03008KT 1SM -SN BR vvo10 -6.1/-7.8 A3014 RMK A02 PO003<br>
  KHUL 120453Z AUTO 03008KT 3/4SM -SN BR VVO11 -6.1/-7.8 A3012 RMK A02 SLP209 PO003 400281061<br>
  KHUL 120513Z AUTO 02007KT 1/2SM SN FZFG VV008 -6.1/-7.8 A3011 RMK A02 PO001<br>
  KHUL 120553Z AUTO 02009KT 1/2SM SN FZFG VVO07 -6.1/-7.8 A3008 RMK A02 SLP193 PO003 60010 11044 21061 58039<br>
  KHUL 120653Z AUTO 0201OKT 1/2SM SN FZFG VVO07 -6.1/-7.8 A3003 RMK A02 PRESFR SLP176 PO005<br>
  KHUL 120753Z AUTO 0201OKT 3/4SM -SN BR BKN010 OVC030 -5.6/-7.2 A2997 RMK A02 PRESFR SLP155 PO008<br>
  KHUL 120756Z AUTO 02011lKT 1SM UP BR SCT010 OVC029 -5.6/-7.2 A2996 RMK A02 UPB54SNE54 PRESFR PO000<br>
  KHUL 120853Z AUTO 35007KT 1 3/4SM UP BR OVC022 -5.6/-7.2 A2991 RMK A02 UPB0754E18B38SNE0754B03E16B18E38 SLP137 PO003 60016 58055<br>
  KHUL 120904Z AUTO 01007KT 1SM -SN BR OVC022 -5.6/-7.2 A2990 RMK A02 UPE0854SNB0854 PO001<br>
  KHUL 120920Z AUTO 36007KT 1 3/4SM UP BR OVC019 -5.6/-7.2 A2989 RMK A02 UPE0854B18SNB0854E18 PO001<br>
  KHUL 120927Z AUTO 04007KT 2 1/2SM UP BR OVC019 -5.6/-7.2 A2988 RMK A02 UPE0854B18SNB0854E18 PO001<br>
  KHUL 120936Z AUTO 36007KT 1 1/4SM UP BR OVC019 -5.6/-7.2 A2987 RMK A02 UPE0854B18SNB0854E18 PRESFR PO001<br>
  KHUL 120948Z AUTO 01008KT 1 3/4SM UP BR OVC019 M06/MO7 A2986 RMK A02 UPE0854B18SNB0854E18B37E41 PO001<br>
  KHUL 120953Z AUTO 03009KT 1 3/4SM -SN BR OVCO17 -5.6/-7.2 A2985 RMK A02 UPE0854B18E51SNB0854E18B37E41B51 SLP118 PO002<br>
  KHUL 121006Z AUTO 36007KT 2SM -SN BR FENO09 OVC017 -5.0/-6.7 A2984 RMK A02 UPBOE05SNEOOB05 PO001<br>
  KHUL 121021Z AUTO 03008KT 1 1/4SM -SN BR OVC016 -5.6/-6.7 A2983 RMK A02 UPBO0E05SNE0OB05 PO001<br>
  KHUL 121034Z AUTO 02006KT 1 1/2SM -SN BR BKN012 OVC017 -5.6/-6.7 A2982 RMK A02 UPBO0E05SNEOOB05 PO001<br>
  KHUL 121043Z AUTO 02007KT 3SM UP BR OVC012 -5.0/-6.7 A2981 RMK A02 UPBO0E05B43SNEOOBO5E43 PRESFR PO001<br>
  KHUL 121053Z AUTO 02008KT 4SM BR 0VC010 -5.0/-6.7 A2980 RMK A02 UPBO0E05B43E53SNE0OB05E43 CIG 007V014 SLP098 PO001<br>
  KHUL 121109Z AUTO 36007KT 3SM BR OVC007 -5.6/-6.7 A2979 RMK A02 CIG 005V011 I1000<br>
  KHUL 121153Z AUTO 04004KT 2 1/2SM -FZRA BR OVC06 -5.0/-6.1 A2976 RMK A02 UPB29E37FZRAB37 SLP088 PO000 60019 70029 I1001 16001 11050 21061 58032<br>`,

  cyzx:
  `CYZX 120000z 06006KT 15SM OVC050 3.0/0.2 A3024 RMK SC8 SLP240 50008 SKYXX<br>
  CYZX 120015z 06006KT 15SM - SHRA OVCO50 3.0/0.7 A3024 RMK SC8 PCPN VRY LGT SLP240 SKYXX<br>
  CYZX 120047z 05008KT 12SM -SN SCTO17 OoVC035 2.2/0.8 A3024 RMK SC3SC5 SLP240 SKYXX<br>
  CYZX 120100Z 06008KT 8SM -SN SCT017 OVC035 1.8/1.1 A3024 RMK SC3SC5 SLP240 SKYXX<br>
  CYZX 120129Z 04009KT 15SM -SN BKNO17 ovC035 1.5/1.0 A3024 RMK SCGSC2 PCPN VRY LGT SLP242 SKYXX<br>
  CYZX 120200Z 06010KT 12SM -SNPL BKNO17 OVC035 1.3/0.8 A3024 RMK SC7SC1 SLP242 SKYXX<br>
  CYZX 120221Z 06010KT 15SM -SN FENO08 OVC014 1.0/0.5 A3024 RMK SF2SC6 PCPN VRY LGT SLP240 SKYXX<br>
  CYZX 120244Z 06010KT 15SM -SN BKNO06 ovco13 1.0/0.5 A3021 RMK SF6SC2 PCPN VRY LGT SLP233 SKYXX<br>
  CYZX 120300z 07013KT 12SM -SN BKNO06 OVC013 1.0/0.5 A3019 RMK SF6SC2 PCPN VRY LGT SLP225 58015 SKYXX<br>
  CYZX 120326z 06012KT 12SM -SN SCTO06 OVC012 1.2/0.7 A3018 RMK SF3SC5 PCPN VRY LGT SLP222 SKYXX<br>
  CYZX 120400Z 06013KT 15SM FENO06 OVC017 1.3/0.8 A3015 RMK SF2SC6 SLP212 SKYXX<br>
  CYZX 120500z 07010KT 15SM OVC015 2.0/1.3 A3012 RMK SC8 SLP202 SKYXX<br>
  CYZX 120513Z 06009KT 15SM OVCO14 2.0/1.3 A3012 RMK SC8 SLP201 SKYXX<br>
  CYZX 120600Z 04012KT 15SM OVC013 1.8/1.3 A3008 RMK SC8 SLP189 58036 SKYXX<br>
  CYZX 120700z 04008KT 15SM OVCO12 2.0/1.5 A3004 RMK SC8 SLP174 SKYXX<br>
  CYZX 120800Z 02009KT 15SM SCTO12 OVC035 2.5/2.0 A2998 RMK SC4SC4 PRESFR SLP154 SKYXX<br>
  CYZX 120900z 14013G20KT 15SM BKN030 OVC110 8.8/7.3 A2990 RMK SC7AC1 PRESFR SLP126 58062 SKYXX<br>
  CYZX 120944z 16014G26KT 15SM BKN012 OVC030 10.0/8.5 A2985 RMK SC6SC2 PRESFR SLP108 SKYXX<br>
  CYZX 121000Z 16014G19KT 15SM OVC012 10.1/8.8 A2985 RMK SC8 SLP108 SKYXX<br>
  CYZX 121030Z 15025G35KT 12SM -RA BKNO12 OVC060 10.7/9.8 A2983 RMK SC6SC2 SLP101 SKYXX3 CYZX 121044z 15019G30KT 6SM -RA BR SCTO12 OVC065 10.7/9.8 A2982 RMK SC3SC5 SLP098 SKYXX<br>
  CYZX 121100Z 16012G19KT 6SM -RA BR SCTO12 OVC060 10.7/10.0 A2980 RMK SC3SC5 SLPO92 SKYXX<br>
  CYZX 121120z 15012G21KT 3SM -RA BR FENO09 SCT055 OVC060 11.1/10.7 A2979 RMK SF2CF2SC5 VIS VRB 2-4 SLP088 SKYXX<br>
  CYZX 121200Z 18012G21KT 3SM - RA BR FEWO15 SCT040 OVC050 12.3/11.6 A2977 RMK SF2CF2SC5 VIS VRB 2-4 SLP083 56043 SKYXX<br>`,

  cyzv:
  `CYZV 120000Z 33002KT 15SM BKN200 M12/M14 A3026 RMK CI6 SLP252<br>
  CYZV 120100Z 34004KT 280V350 15SM SCT180 BKN260 M1l/M13 A3026 RMK AC3CI3 SLP255<br>
  CYZV 120200Z 31003KT 260V320 15SM SCTO35 BKN180 OVC260 M12/M14 A3027 RMK SC3AC3CI2 SLP258<br>
  CYZV 120300Z 33002KT 15SM SCT035 BKN120 BKN180 OVC220 M10/M13 A3028 RMK SC3AC2ACICI2 SLP259<br>
  CYZV 120400Z 35005KT 15SM SCT035 BKN120 OVC180 M09/M13 A3028 RMK SC3AC4AC1 SLP259<br>
  CYZV 120500Z 35004KT 15SM FEWO35 0vc120 M10/M13 A3028 RMK SCZAC6 SLP260<br>
  CYZV 120600z 35003KT 15SM FEWO15 OVC100 M11/M13 A3027 RMK SF1AC7 SLP257<br>
  CYZV 120700z 01003KT 15SM FENO15 0vc100 M10/M12 A3027 RMK SF1AC7 SLP257<br>
  CYZV 120800Z 36006KT 15SM FEWO15 BKN090 OVC160 M09/M12 A3025 RMK SF1ACZACI SF TR SLP250<br>
  CYZV 120900Z 02004KT 15SM OVC080 M09/M12 A3024 RMK AC8 SLP245<br>
  CYZV 121000Z 03005KT 15SM BKN060 0VC080 MO9/M12 A3022 RMK SC5AC3 SLP240<br>
  CYZV 121051z 02007KT 15SM -SN OVCO35 M08/M12 A3020 RMK SC8 SLP233<br>
  CYZV 121100Z 04007KT 1OSM -SN OVCO35 M08/M12 A3019 RMK SC8 SLP231<br>
  CYZV 121154Z 04008KT 2SM -SN VV010 MO8/M10 A3019 RMK SN8 SLP229<br>
  CYZV 121200Z 04008KT 2SM -SN VV015 M08/M10 A3018 RMK SN8 SLP227<br>`,

  cyyt:
  `CYYT 120000Z 27014KT 15SM FENO07 BKN023 OVC057 06/05 A3011 RMK SF1SC6SC1 SLP203<br>
  CYYT 120100Z 26011KT 15SM SCT063 05/03 A3015 RMK SC4 SLP216<br>
  CYYT 120200Z 26011KT 15SM FEWO60 FEW220 04/02 A3017 RMK SciC12 SC TR SLP223<br>
  CYYT 120300z 27009KT 15SM BKN027 04/02 A3019 RMK SC6 SLP230<br>
  CYYT 120400z 32011KT 15SM BKN023 OVC060 03/01 A3022 RMK SC7SC1 SLP241<br>
  CYYT 120420Z 33010G19KT 15SM BKN023 02/M00 A3024 RMK SC7 SLP246<br>
  CYYT 120500Z 33007KT 15SM BKNO14 BKN026 02/MO0 A3026 RMK SC6SC1 SLP255<br>
  CYYT 120516Z 33008KT 15SM FENO14 BKN027 01/MO1 A3027 RMK SC2SC4 SLP259<br>
  CYYT 120600Z 35006KT 15SM BKN018 00/M02 A3028 RMK SC5 SLP260<br>
  CYYT 120700Z 33006KT 15SM FEWO15 SCT240 MO1/M03 A3030 RMK SCICI2 SLP267<br>
  CYYT 120800Z 32003KT 15SM FEWO30 BKN240 M02/M03 A3033 RMK SCICI4 SLP278<br>
  CYYT 120900Z 34005KT 15SM FENO17 BKN240 M02/M04 A3034 RMK SCICI5 SLP281<br>
  CYYT 121000Z 00000KT 15SM BKN110 BKN240 M02/M06 A3036 RMK AC7CI1 CI TR SLP289<br>
  CYYT 121100z 31004KT 15SM OVC120 MO2/M06 A3038 RMK AC8 SLP296<br>
  CYYT 121200Z 02003KT 15SM SCT120 BKN220 MO0/M06 A3040 RMK AC4CI2 SLP302<br>`,

  cyyy:
  `CYYY 120000Z 20008KT 15SM BKN140 M06/M12 A3030 RMK AS7 SLP266<br>
  CYYY 120100z 19005KT 15SM BKN130 M06/M12 A3029 RMK AC7 SLP262<br>
  CYYY 120200z 18006KT 15SM SCT030 BKN100 MO6/M12 A3028 RMK SC4AC3 SLP260<br>
  CYYY 120300z 16007KT 15SM BKN028 BKN100 MO7/M12 A3028 RMK SC5AC2 SLP259<br>
  CYYY 120351z 15006KT 1OSM -SN OVCO32 M06/M11 A3027 RMK SC8 SLP257<br>
  CYYY 120400Z 16006KT 5SM -SN OVCO28 M07/M11 A3027 RMK SC8 SLP257<br>
  CYYY 120500z 14005KT 3SM -SN OVCO25 M07/MO9 A3026 RMK SC8 SLP251<br>
  CYYY 120600z 13005KT 3SM -SN OVCO28 M07/MO9 A3023 RMK SC8 /S01/ SLP241<br>
  CYYY 120700z 10005KT 3SM -SN OVCO28 M07/M08 A3020 RMK SC8 SLP233<br>
  CYYY 120800z 09006KT 3SM -SN VVO13 M06/M08 A3018 RMK SN8 /S01/ SLP225<br>
  CYYY 120807Z 09008KT 2SM -SN VV010 M06/M08 A3016 RMK SN8 PRESFR SLP219<br>
  CYYY 120813Z 09007KT 1SM R06/5500VP6000FT/D -SN VV010 MO6/M08 A3016 RMK SN8 PRESFR SLP217<br>
  CYYY 120823Z 09007KT 3/4SM R06/6000FT/N -SN VVO10 M06/M08 A3015 RMK SN8 SLP215<br>
  CYYY 120900Z 08010KT 3/4SM R06/P6000FT/U -SN Vvo10 M06/M08 A3014 RMK SN8 /S02/ SLP211<br>
  CYYY 121000Z 09010KT 3/4SM R06/P6000FT/D -SN vVo10 MO6/MO8 A3010 RMK SN8 /S03/ SLP199<br>
  CYYY 121100z 09013G20KT 1SM R06/P6000FT/D -SN vvo11 M06/M08 A3005 RMK SN8 /S04/PRESFR SLP182<br>
  CYYY 121140z 06012KT 3/4SM R06/P6000FT/D -SN DRSN VV011 M06/M08 A3002 RMK SN8 SLP172<br>
  CYYY 121200z 07011G19KT 3/4SM R06/5500VP6000FT/D -SN VVO10 M06/M07 A3001 RMK SN8 /S05/ SLP168<br>`,

  cysj:
  `CYSJ 120000Z 02010KT 15SM OVC038 M01/MO7 A3023 RMK SC8 SLP244<br>
  CYSJ 120016Z 02012KT 8SM -SN OVC038 MO1/M07 A3023 RMK SC8 SLP244<br>
  CYSJ 120100Z 03009KT 4SM -SN OVC020 M02/M05 A3024 RMK SC8 SLP247<br>
  CYSJ 120107Z 03011KT 2SM -SN OVC018 MO2/MO5 A3024 RMK SC8 SLP247<br>
  CYSJ 120200z 03011G16KT 2SM -SN OVC015 M03/MO4 A3021 RMK SC8 PRESFR SLP237<br>
  CYSJ 120222Z 03011KT 1SM -SN VV009 M03/M04 A3020 RMK SN8 SLP233<br>
  CYSJ 120300Z 04010KT 1SM -SN OVC030 M03/M04 A3017 RMK SN4SC4 SLP223<br>
  CYSJ 120400Z 03008KT 1SM -SN OVCO12 M02/M03 A3014 RMK SC8 SLP213<br>
  CYSJ 120451Z 02006KT 5SM -SN OVCO8 M02/M02 A3012 RMK SC8 SLP207<br>
  CYSJ 120500z 02004KT 5SM -SN OVCO07 M02/M02 A3011 RMK SC8 SLP205<br>
  CYSJ 120523Z CA 35004KT 5SM BR OVC005 MO1/MO2 A3011 RMK SC8 SLP202<br>
  CYSJ 120552Z 07013KT 8SM OVC004 01/00 A3007 RMK SF8 PRESFR SLP188<br>
  CYSJ 120600z 07011KT 8SM OVC004 01/00 A3006 RMK SF8 PRESFR SLP185<br>
  CYSJ 120700Z 10011G18KT 8SM OVC004 01/01 A3000 RMK SF8 PRESFR SLP166<br>
  CYSJ 120704Z 10009G18KT 8SM -RA ovC004 01/01 A3000 RMK SF8 PRESFR SLP166<br>
  CYSJ 120729z 10013G20KT 2SM -RA BR OvC03 02/01 A2996 RMK SF8 PRESFR SLP152<br>
  CYSJ 120800z 10010KT 2SM - RA BR OVC004 02/02 A2993 RMK SF8 PRESFR SLP143<br>
  CYSJ 120900Z 13007G15KT 070V150 2SM RA BR BKN004 OVC015 03/03 A2987 RMK SF7SC1 PRESFR SLP120<br>
  CYSJ 120905Z 10011G16KT 080V150 2SM -RA BR BKNO04 OVC015 03/03 A2986 RMK SF7SC1 PRESFR SLP118<br>
  CYSJ 120907Z 10013KT 080V150 2SM RA BR BKNO04 ovco15 03/03 A2986 RMK SF7SC1 PRESFR SLP119<br>
  CYSJ 120929z 09011G17KT 3SM -RA BR BKNO05 OVC012 03/03 A2983 RMK SF5SC3 PRESFR SLP109<br>
  CYSJ 120944Z 09010KT 35SM - RA BR BKNO05 OVC013 03/03 A2982 RMK SF6SC2 PRESFR SLP103<br>
  CYSJ 121000Z 07004KT 040V140 4SM - RA BR OVC005 04/03 A2982 RMK SF8 SLP104<br>
  CYSJ 121014Z 10010G15KT 4SM BR OVC004 04/04 A2980 RMK SF8 PRESFR SLP098<br>
  CYSJ 121100z 12011G25KT 6SM BR SCT004 OVC010 07/06 A2976 RMK SF4SC4 SLP084<br>
  CYSJ 121109z 17010G25KT 110V200 6SM BR SCTO04 ovc007 07/07 A2977 RMK SF3SF5 SLPO85<br>
  CYSJ 121125Z 13015KT 35SM - RA BR BKNO07 OVC010 08/08 A2975 RMK SF7SC1 PRESFR SLPO79<br>
  CYSJ 121149z 13011KT 6SM - RA BR OVC006 09/08 A2974 RMK SF8 SLP077<br>
  CYSJ 121200Z 16010G17KT 110V190 5SM -RA BR OVC004 09/08 A2974 RMK SF8 SLP077<br>`,

  cyyg:
  `CYYG 120000Z 32004KT 15SM OVC051 MO1/M06 A3028 RMK SC8 SLP257<br>
  CYYG 120100Z 00000KT 15SM OVC048 MO0/M06 A3028 RMK SC8 SLP258<br>
  CYYG 120200Z 33002KT 15SM OVC048 MO1/M04 A3028 RMK SC8 SLP259<br>
  CYYG 120252Z 04006KT 360V070 10SM - SN OVC036 MO0/MO5 A3028 RMK SC8 SLP259<br>
  CYYG 120300z 04004KT 1OSM - SN OVC036 MO1/MO5 A3028 RMK SC8 SLP259<br>
  CYYG 120400Z 07005KT 8SM - SN OVCO38 M02/M03 A3027 RMK SC8 SLP255<br>
  CYYG 120500Z 09007KT 8SM - SN SCTO07 OVC041 MO2/M03 A3022 RMK SF4SC4 SLP239<br>
  CYYG 120600z CA 05007KT 2SM - SN SCTO07 OVC023 M02/M02 A3021 RMK SF4SC4 /S01/ SLP234<br>
  CYYG 120700z 06010KT 5SM - SN SCTO06 OVC024 MO2/M02 A3016 RMK SF4SC4 SLP219<br>
  CYYG 120730Z 07010KT 12SM BKNO06 0VC020 MO1/M02 A3013 RMK SF6SC2 SLP209<br>
  CYYG 120800Z 07009KT 12SM OVC005 MO1/MO1 A301l RMK SF8 SLP202<br>
  CYYG 120833Z 09010KT 12SM - SN BKNO06 OVC017 M00/MO1 A3008 RMK SF6SC2 PRESFR SLP191<br>
  CYYG 120900Z 10010KT 12SM - SN BKNO06 OVC015 00/MO0 A3004 RMK SF5SC3 /S01/ PRESFR SLP176<br>
  CYYG 120917Z 11010KT 15SM -RA SCTO06 OVC013 01/MO0 A3003 RMK SF3SC5 SLP172<br>
  CYYG 121000Z 12012KT 12SM -RA OVCO10 03/01 A2998 RMK SC8 PRESFR SLP156<br>
  CYYG 121057Z 10011KT 12SM OVC010 03/03 A2992 RMK SC8 PRESFR SLP135<br>
  CYYG 121100z 11011KT 15SM OVC010 03/03 A2992 RMK SC8 PRESFR SLP134<br>
  CYYG 121200z 13013KT 1OSM -RA OVC009 06/05 A2987 RMK SF8 PRESFR SLP118<br>`,

  cyqy:
  `CYQY 120000Z 31007KT 15SM FEWO26 BKN110 02/MO2 A3024 RMK SCZAC4 SLP245<br>
  CYQY 120100z 29005KT 15SM BKN110 01/M03 A3028 RMK AC6 SLP257<br>
  CYQY 120200z 00000KT 15SM BKN100 01/M03 A3029 RMK AC7 SLP260<br>
  CYQY 120300Z 32004KT 15SM SCT039 SCT110 00/MO3 A3029 RMK SC3AC1 SLP262<br>
  CYQY 120400z 00000KT 15SM BKN048 00/M03 A3029 RMK SC7 SLP260<br>
  CYQY 120500z 10002KT 15SM OVC041 00/M02 A3029 RMK SC8 SLP262<br>
  CYQY 120600z 09004KT 15SM OVC038 01/M02 A3029 RMK SC8 SLP260<br>
  CYQY 120700z 09007KT 15SM OVC031 02/M02 A3027 RMK SC8 SLP255<br>
  CYQY 120800z 10006KT 15SM OVC022 02/M01 A3024 RMK SC8 SLP246<br>
  CYQY 120900z 10009KT 15SM OVC018 03/MO0 A3022 RMK SC8 SLP239<br>
  CYQY 121000z 12012KT 15SM OVC016 04/01 A3019 RMK SC8 SLP227<br>
  CYQY 121018Z 12009KT 1OSM OVC012 04/02 A3020 RMK SC8 SLP229<br>
  CYQY 121100z 12012KT 15SM OVC010 05/03 A3017 RMK SC8 SLP219<br>
  CYQY 121120Z 12014KT 15SM OVCO08 O5/04 A3013 RMK SC8 PRESFR SLP208<br>
  CYQY 121200z 14017G22KT 15SM OVCO07 06/05 A3011 RMK SC8 SLP199<br>`,

  cyqx:
  `CYQX 120000z CA 30016G22KT 5SM - SHSN FEWO06 SCT013 OVC024 MO0/M02 A3009 RMK SF2SC2SC4 SLP197<br>
  CYQX 120053Z 28012G23KT 15SM FEWO32 OVC044 MO1/M04 A3014 RMK SC1SC7 PRESRR SLP216<br>
  CYQX 120100Z 27014KT 15SM FEWO32 BKN044 MO1/M05 A3015 RMK Scisc5 PRESRR SLP218<br>
  CYQX 120126Z 26011G17KT 15SM FEWO06 SCT032 MO2/M05 A3017 RMK SF1SC2 PRESRR SLP226<br>
  CYQX 120200Z 28014KT 15SM FEWO06 FEW065 MO2/M07 A3019 RMK SF1SC1 SF TR SLP231<br>
  CYQX 120300z 28011KT 15SM FEW260 M04/M08 A3021 RMK CI2 SLP239<br>
  CYQX 120400Z 29011KT 15SM BKN260 M04/M08 A3023 RMK CI6 SLP247<br>
  CYQX 120500Z 26007KT 15SM BKN260 MO5/M08 A3026 RMK CI7 PRESRR SLP258<br>
  CYQX 120600Z 26006KT 15SM BKN260 M04/M09 A3028 RMK CI7 SLP264<br>
  CYQX 120700z 26007KT 15SM SCT260 MO5/M09 A3029 RMK CI3 SLP267<br>
  CYQX 120800Z 26006KT 15SM FEW260 MO5/M10 A3031 RMK CI2 SLP275<br>
  CYQX 120900z 26005KT 15SM FEW140 FEN260 MO5/M08 A3034 RMK ACICI1 PRESRR SLP284<br>
  CYQX 121000z 24003KT 15SM FEW110 FEW140 BKN250 MO5/M08 A3034 RMK AS1AC1CI4 SLP285<br>
  CYQX 121100z 17004KT 20SM MIFG FEWl10 BKN130 BKN250 M06/MO7 A3035 RMK ASIAC6CI1 CI TR SHLWFG W SLP289<br>
  CYQX 121200z 17003KT 20SM BKNO78 Ovc130 MO4/M07 A3035 RMK AS6AC2 SLP290<br>`,

  cyqm:
  `CYQM 120000Z 34005KT 15SM BKN040 M01/M08 A3027 RMK SC7 VIRGA SLP255<br>
  CYQM 120100Z 35004KT 15SM BKN040 M01/M08 A3026 RMK SC7 VIRGA SLP254<br>
  CYQM 120145Z 01003KT 15SM - SN BKNO35 M02/M08 A3026 RMK SC7 SLP254<br>
  CYQM 120200Z 02005KT 8SM -SN OVC030 M01/M08 A3027 RMK SC8 SLP256<br>
  CYQM 120231Z 03006KT 2 1/2SM - SN 0VC025 M03/M05 A3027 RMK SN6SC2 SLP255<br>
  CYQM 120300Z 05007KT 2 1/2SM - SN 0VC020 M03/M04 A3026 RMK SN6SC2 PRESFR SLP252<br>
  CYQM 120316Z 07006KT 35SM - SN OVC035 M03/M04 A3024 RMK SN5SC3 PRESFR SLP246<br>
  CYQM 120323Z 07009KT 35SM - SN BKNO05 OVC030 MO3/M04 A3023 RMK SN5SF2SCi SLP244<br>
  CYQM 120400z 06008KT 35SM - SN FEWOO5 VV022 M03/M04 A3022 RMK SF2SN8 /S01/ SLP238<br>
  CYQM 120447Z 05009KT 2SM - SN FEWOO5 VV014 MO3/M04 A3020 RMK SF2SN8 SLP232<br>
  CYQM 120500Z 05011KT 2SM - SN FENOO5 VV014 M03/M04 A3018 RMK SF1SN8 PRESFR SLP227<br>
  CYQM 120520Z 05009KT 1SM R06/P6000FT/D R29/P6000FT/D - SN FEWO05 VVO10 MO3/M04 A3018 RMK SF1SN8 SLP226<br>
  CYQM 120600Z 04010KT 1 1/4SM -SN DRSN FEWO06 VVo12 MO3/MO3 A3015 RMK SF1SN8 /S03/ SLP215<br>
  CYQM 120615Z 06006KT 5SM - SN DRSN SCTO05 OVC025 M02/M03 A3016 RMK SF3SC5 SLP218<br>
  CYQM 120655Z 05008KT 8SM - SN DRSN BKNO06 OVCO15 M02/M03 A3012 RMK SF5SC3 PRESFRSLP205<br>
  CYQM 120700Z 05010KT 7SM - SN DRSN BKNO06 OVCO14 M02/M03 A3012 RMK SF5SC3 PRESFRSLP203<br>
  CYQM 120800Z 07009KT 8SM -FZRA - SN OVCO05 MO1/M02 A3004 RMK SF8 PRESFR SLP178<br>
  CYQM 120807Z 07008KT 8SM -FZRA - PL ovc05 MO1/M02 A3004 RMK SF8 PRESFR SLP177<br>
  CYQM 120838Z 06008KT 35SM -FZRA BR ovc003 MO1/MO1 A3000 RMK SF8 SLP165<br>
  CYQM 120900Z 06009KT 8SM -FZRA OVC003 MO1/MO1 A2998 RMK SF8 PRESFR SLP157<br>
  CYQM 120933Z 04009KT 2 1/2SM -FZRA -FZDZ BR OVC003 MO0/MO1 A2994 RMK SF8 PRESFRSLP143<br>
  CYQM 121000Z 04007KT 2 1/2SM FZRA -FZDZ BR OVC004 MO0/MO0 A2990 RMK SF8 PRESFR SLP131<br>
  CYQM 121011z 04007KT 2 1/2SM -FZRA -FZDZ BR OVC003 MO0/MO0 A2989 RMK SF8 PRESFRSLP128<br>
  CYQM 121045z 06006KT 5SM - RADZ BR ovc003 00/M00 A2985 RMK SF8 PRESFR SLP113<br>
  CYQM 121100z CCA 06004KT 1 1/2SM - RADZ BR OVC003 00/MO0 A2984 RMK SF8 SLP109<br>
  CYQM 121114Z 07004KT 3/4SM R06/P6000FT/D R29/P6000FT/D -DZ BR VV003 00/00 A2983 RMK FG8 SLP106<br>
  CYQM 121133Z 03004KT 1/2SM R06/P6000FT/U R29/P6000FT/D -DZ FG VV003 00/M00 A2982 RMK FG8 SLP103<br>
  CYQM 121200z 03005KT 1/2SM R06/5000FT/D R29/4000FT/N - DZ FG VV003 00/00 A2979 RMK FG8 PRESFR SLP094<br>`,

  cyqi:
  `CYQI 120000z 07007KT 15SM FENO57 BKN084 OVC150 06/02 A3017 RMK SC1AC7AC1 SC TR SLP219<br>
  CYQI 120100z 08005KT 15SM OVC080 O5/02 A3017 RMK AC8 SLP219<br>
  CYQI 120200z 08007KT 15SM OVC075 06/03 A3015 RMK AC8 SLP213<br>
  CYQI 120300z 10008KT 15SM OVC090 06/05 A3011 RMK AC8 SLP200<br>
  CYQI 120400z 14006KT 15SM SCT170 0VC210 08/07 A3010 RMK AC3CS5 SLP195<br>
  CYQI 120500z 14012KT 15SM SCT042 0VCO70 OVC210 09/07 A3006 RMK SC4AC4CS1 Cs TR SLP180<br>
  CYQI 120600z CCA 15010G18KT 15SM OVC023 09/07 A3002 RMK SC8 SLP168<br>
  CYQI 120602Z 15011G18KT 15SM - SHRA OVC024 09/07 A3002 RMK SC8 CVCTV CLD EMBD SLP167<br>
  CYQI 120700z 14017G24KT 15SM - SHRA OVc018 10/08 A2997 RMK SC8 CVCTV CLD EMBD PRESFR SLP151<br>
  CYQI 120800z 15015G26KT 9SM - SHRABKN014 12/10 A2991 RMK SC7 CVCTV CLD EMBD PRESFR SLP130<br>
  CYQI 120900z CCA 16013G21KT 6SM SHRA BR FEWO10 OVC023 12/11 A2985 RMK SF2SC6 CVCTC CLD EMBD SLP111<br>
  CYQI 120905z 16018G24KT 5SM +SHRA BR SCTO07 OVC016 12/11 A2985 RMK SF3SC5 CVCTV CLD EMBD SLP112<br>
  CYQI 120920z 19009G17KT 140V210 5SM SHRA BR BKNO05 OVC015 12/12 A2985 RMK SF6SC2 CVCTV CLD EMBD SLP112<br>
  CYQI 120924Z 18010G18KT 140V210 5SM +RA BR OVC004 12/12 A2985 RMK SF8 SLP112<br>
  CYQI 120930z 18015G21KT 140V220 2SM RA BR OVC005 12/12 A2985 RMK SF8 SLP110<br>
  CYQI 120940z 17014G20KT 2SM +RA BR OVC004 12/12 A2982 RMK SF8 PRESFR SLP102<br>
  CYQI 120951Z 17016G27KT 2SM RA BR OVC004 13/13 A2981 RMK SF8 PRESFR SLPO98<br>
  CYQI 121000z CCA 18019G27KT 2SM -RA BR OVC004 13/13 A2981 RMK SF8 /R13/ SLP098<br>
  CYQI 121100z 19017G23KT 2SM -RA BR OVC003 13/13 A2981 RMK SF8 SLP096<br>
  CYQI 121107z 19018KT 2SM BR OVC003 14/13 A2981 RMK SF8 SLP096<br>
  CYQI 121143Z 19019G25KT 3SM BR OVC005 14/13 A2981 RMK SF8 SLP096 DENSITY ALT 200OFT<br>
  CYQI 121200z 20018G27KT 3SM BR OVC006 13/13 A2981 RMK SF8 SLP098<br>`,

  cymh:
  `CYMH 120000Z AUTO 26014G22KT 9SM CLR -8.5/-14.0 A2998 RMK SLP152<br>
  CYMH 120100Z AUTO 26017G26KT 9SM CLR -8.3/-14.2 A3002 RMK SLP168 MAX WND 27020KT AT 0039Z<br>
  CYMH 120200Z AUTO 27017G26KT 9SM CLR -8.6/-14.3 A3004 RMK SLP173 MAX WND 26020KT AT 0104Z<br>
  CYMH 120300Z AUTO 26011G16KT 9SM CLR -8.7/-14.1 A3007 RMK SLP183 MAX WND 26018KT AT 0201Z<br>
  CYMH 120400Z AUTO 27014G20KT 9SM CLR -8.3/-14.0 A3008 RMK SLP186<br>
  CYMH 120500Z AUTO 25012KT 9SM CLR -8.6/-14.1 A3009 RMK SLP192<br>
  CYMH 120600Z AUTO 25009G16KT 9SM CLR -9.0/-14.1 A3013 RMK SLP204<br>
  CYMH 120700Z AUTO 22003KT 160V330 9SM CLR -9.5/-14.2 A3016 RMK SLP213<br>
  CYMH 120800Z AUTO 22003KT 130V240 9SM FEN200 -9.6/-14.3 A3019 RMK SLP226<br>
  CYMH 120900Z AUTO 23005KT 9SM CLR -9.8/-13.9 A3020 RMK SLP229<br>
  CYMH 121000Z AUTO 2401OG15KT 9SM CLR -8.5/-13.6 A3022 RMK SLP236<br>
  CYMH 121100Z AUTO 25005KT 230V290 9SM CLR -9.1/-14.0 A3025 RMK PRESRR SLP246<br>
  CYMH 121200Z AUTO 25005KT 9SM CLR -8.4/-13.5 A3025 RMK SLP246<br>`,

  cyna:
  `CYNA 120000Z AUTO 30009KT 9SM CLR -7.1/-11.4 A3022 RMK SLP235<br>
  CYNA 120100Z AUTO 30008KT 9SM SCT190 BKN210 -7.6/-11.1 A3025 RMK SLP245<br>
  CYNA 120200Z AUTO 32004KT 9SM SCT180 BKN200 -8.8/-11.5 A3026 RMK SLP249<br>
  CYNA 120300Z AUTO 0000OKT 9SM SCT140 BKN170 -9.7/-11.6 A3027 RMK SLP252<br>
  CYNA 120400Z AUTO 07002KT 9SM CLR -10.2/-11.8 A3027 RMK SLP253<br>
  CYNA 120451Z AUTO VRB02KT 9SM CLR -11.3/-13.2 A3029 RMK SLP259 ICG<br>
  CYNA 120500Z AUTO 0000OKT 9SM CLR -10.8/-12.0 A3029 RMK SLP259 ICG<br>
  CYNA 120600Z AUTO 04005KT 9SM BKN120 BKN140 -9.5/-11.0 A3029 RMK SLP260 ICG<br>
  CYNA 120700Z AUTO 05003KT 9SM OVC120 -8.2/-10.3 A3030 RMK SLP262 ICG<br>
  CYNA 120716Z AUTO VRB02KT 9SM SCT120 -8.8/-10.4 A3030 RMK SLP263 ICG PAST HOUR<br>
  CYNA 120800Z AUTO 08003KT 9SM OVC100 - 7.7/-9.3 A3030 RMK SLP261<br>
  CYNA 120900Z AUTO 06005KT 9SM FENO35 OVC090 - 7.4/-9.8 A3029 RMK SLP258<br>
  CYNA 121000Z AUTO 08006KT 9SM OVC075 6.7/-10.3 A3027 RMK SLP250<br>
  CYNA 121100Z AUTO 07006KT 9SM OVCO65 -6.7/-10.1 A3026 RMK SLP247<br>
  CYNA 121129Z AUTO 07006KT 9SM - SN OVC040 -6.6/-9.8 A3027 RMK SLP251<br>
  CYNA 121142Z AUTO 07005KT 5SM - SNOVC030 -6.6/-9.5 A3027 RMK SLP253<br>
  CYNA 121149Z AUTO 07007KT 3SM - SN OVC024 -6.6/-9.3 A3027 RMK SLP253<br>
  CYNA 121152Z AUTO 07009KT 2 1/4SM - SN OVC022 -6.7/-9.3 A3027 RMK SLP253 VIS VRB 1 1/2-3<br>
  CYNA 121154Z AUTO 07008KT 2SM - SN OVC022 -6.7/-9.1 A3027 RMK SLP252 VIS VRB 1 1/2-3<br>
  CYNA 121200Z AUTO 07007KT 1 1/4SM|- SN OVC018 -6.8/-8.8 A3027 RMK SLP253<br>`,

  cyjt:
  `CYJT 120000Z 29008KT 15SM FEW038 M02/M09 A3022 RMK SC2 SLP236<br>
  CYJT 120100Z 30010G16KT 15SM SCT030 M02/M09 A3025 RMK SC4 SLP245<br>
  CYJT 120200Z 30008KT 15SM SCT041 M02/M09 A3027 RMK SC4 SLP254<br>
  CYJT 120300Z 31006KT 15SM BKN045 M01/M08 A3028 RMK SC6 SLP257<br>
  CYJT 120400Z 29004KT 15SM BKN041 M02/M08 A3028 RMK SC5 SLP255<br>
  CYJT 120500Z 31004KT 15SM BKN040 M02/M08 A3030 RMK SC6 SLP263<br>
  CYJT 120600Z 07005KT 15SM BKN044 M02/M07 A3031 RMK SC7 SLP266<br>
  CYJT 120700Z 06003KT 15SM BKN040 M03/M07 A3031 RMK SC7 SLP268<br>
  CYJT 120800Z 06006KT 15SM SCT085 BKN120 M02/M06 A3032 RMK AC3AS4 SLP270<br>
  CYJT 120900Z 08006KT 15SM BKN088 OVC110 M03/M06 A3030 RMK AC6AS2 SLP264<br>
  CYJT 121000Z 07009KT 15SM OVC064 M02/M07 A3030 RMK SC8 SLP263<br>
  CYJT 121100Z 09010KT 10SM -SN OVC021 M03/M05 A3029 RMK SC8 SLP260<br>
  CYJT 121106Z 10010KT 2SM -SN BKN019 OVC025 M03/M05 A3028 RMK SC5SC3 SLP258<br>
  CYJT 121200Z 08012KT 1 1/2SM -SN BKN018 OVC025 M03/M04 A3027 RMK SC5SC3 SLP253<br>
  CYJT 121212Z 08012KT 3/4SM R27/P6000FT/D -SN OVC018 M03/M04 A3026 RMK SC8 SLP251<br>`,

  cygv:
  `CYGV 120000z AUTO 31004KT 9SM BKN200 BKN220 -8.5/-11.7 A3023 RMK SLP239<br>
  CYGV 120100z AUTO 30004KT 9SM BKN190 BKN210 -8.4/-11.7 A3024 RMK SLP245<br>
  CYGV 120200Z AUTO 30005KT 9SM BKN170 OVc190 -7.8/-11.5 A3025 RMK SLP248<br>
  CYGV 120300z AUTO 35004KT 9SM BKN150 -9.9/-12.1 A3026 RMK SLP249<br>
  CYGV 120400Z AUTO 01004KT 9SM OVC150 -9.4/-11.8 A3026 RMK SLP250<br>
  CYGV 120500Z AUTO 02004KT 9SM BKN140 -9.4/-11.5 A3028 RMK SLP257<br>
  CYGV 120600z AUTO 04002KT 9SM BKN130 -9.0/-11.1 A3028 RMK SLP258<br>
  CYGV 12070OZ AUTO 04002KT 9SM OVC120 -9.0/-11.2 A3028 RMK SLP257<br>
  CYGV 120800z AUTO 02004KT 9SM OVC10 -8.6/-11.1 A3027 RMK SLP254<br>
  CYGV 120900z AUTO 03005KT 9SM OVC090 -8.5/-11.0 A3026 RMK SLP250<br>
  CYGV 121000Z AUTO 05009KT 9SM OVCO70 - 7.4/-10.4 A3023 RMK SLP241<br>
  CYGV 121043Z AUTO 06007KT 9SM - SN ovC046 -7.2/-10.6 A3024 RMK SLP244<br>
  CYGV 101100Z AUTO 06008KT 9SM - SN OVC040 -7.1/-10.4 A3024 RMK SLP243<br>
  CYGV 121125Z AUTO 06009KT 5SM - SN ovc030 -7.1/-10.0 A3024 RMK SLP243<br>
  CYGV 121155Z AUTO 0501OKT 3SM - SN ovc024 -7.3/-9.3 A3022 RMK SLP238<br>
  CYGV 121158Z AUTO 0501OKT 2 1/2SM - SN OVC024 -7.3/-9.3 A3022 RMK SLP238<br>
  CYGV 121200z AUTO 0601OKT 2 1/2SM - SN OVC022 -7.3/-9.1 A3023 RMK SLP239<br>`,

  cydf:
  `CYDF 120000Z 26005KT 230V300 15SM FEWO40 MO3/M08 A3018 RMK SC2 SLP223<br>
  CYDF 120100Z 23006KT 15SM FEWO40 M04/M08 A3022 RMK SC1 SLP236<br>
  CYDF 120200Z 24004KT 15SM SKC MO5/M08 A3023 RMK SLP241<br>
  CYDF 120300Z VRBO2KT 15SM FENO40 SCT240 M05/M08 A3026 RMK SCICI2 SLP251<br>
  CYDF 120400Z 29003KT 15SM FEW140 MO5/M08 A3027 RMK AC1 SLP255<br>
  CYDF 120500Z 19002KT 15SM FENO45 M07/M09 A3029 RMK SC1 SC TR SLP260<br>
  CYDF 120600Z VRB02KT 15SM FENO45 M08/M09 A3031 RMK SC1 SC TR SLP267<br>
  CYDF 120700Z 00000KT 15SM FEWO40 M08/M10 A3033 RMK SC2 SLP273<br>
  CYDF 120800Z 00000KT 15SM FEWO40 BKN110 OVC140 M08/M09 A3034 RMK SC1AC5AC2 SLP277<br>
  CYDF 120900Z 05004KT 15SM FENO40 BKN120 OVC140 MO7/MO8 A3033 RMK SC1AC5AC2 SLP273<br>
  CYDF 121000z 03003KT 15SM BKN072 OvC120 M06/M07 A3034 RMK AC5AC3 SLP276<br>
  CYDF 121100Z 06004KT 15SM FEWO20 OVC059 M06/M07 A3033 RMK SCisc8 SC TR SLP275<br>
  CYDF 121200z CA 04005KT 12SM FEWO20 BKN054 BKNO72 MO5/MO7 A3032 RMK SF1SC6AC1 SLP270<br>`,

  cygr:
  `CYGR 120000z 35006KT 15SM BKN036 MO1/MO8 A3028 RMK SC6 SLP255<br>
  CYGR 120100z 35006KT 15SM BKN044 MO1/MO8 A3030 RMK SC6 SLP263<br>
  CYGR 120200Z 05006KT 15SM BKN042 M02/M08 A3030 RMK SC7 SLP262<br>
  CYGR 120300Z 05004KT 15SM BKNO42 BKN210 MO2/M09 A3030 RMK SC5CI2 LAST STFD OBS/NXT 121000Z SLP262<br>
  CYGR 120400z AUTO 04003KT -1.4/-8.0 A3031<br>
  CYGR 120500Z AUTO 05005KT -1.0/-7.5 A3029<br>
  CYGR 120600Z AUTO 08007KT 040V110 -0.4/-8.0 A3029<br>
  CYGR 120700z AUTO 11008KT -1.0/-5.7 A3028<br>
  CYGR 120800z AUTO 09013KT -1.5/-3.5 A3024<br>
  CYGR 120900z AUTO 11017G22KT -1.0/-2.7 A3021 RMK MAX WND 11017KT AT 0900Z<br>
  CYGR 121000z 10020G27KT 4SM - SN BKNO10 OVC028 MO0/M02 A3014 RMK SC6SC2 /S02 AFT 03 Z/ SLP207<br>
  CYGR 121100z 11023G30KT 4SM - SN OVc013 01/MO1 A3008 RMK SC8 PRESFR SLP189<br>
  CYGR 121133Z 10024G31KT 3SM - SNRA ovco09 01/00 A3006 RMK SC8 PRESFRSLP180<br>
  CYGR 121200Z 11024G33KT 4SM -RA BR OVC009 02/01 A3002 RMK SC8 PRESFR SLP167<br>`,

  cygp:
  `CYGP 120000z 28005KT 15SM BKN140 M06/M12 A3028 RMK AS7 SLP259<br>
  CYGP 120100Z 29003KT 15SM OVC120 MO5/M13 A3029 RMK AS8 SLP262<br>
  CYGP 120200z 34003KT 15SM OVC110 MO5/M13 A3029 RMK AS8 SLP260<br>
  CYGP 120300Z 28003KT 15SM OVC100 MO5/M12 A3030 RMK AS8 SLP264<br>
  CYGP 120400Z 31003KT 15SM OVC090 MO5/M12 A3028 RMK AS8 SLP259<br>
  CYGP 120500Z 31003KT 15SM OVC080 MO5/M12 A3028 RMK AS8 SLP259<br>
  CYGP 120600Z 29004KT 220V300 15SM ovc035 MO5/M11 A3028 RMK SC8 SLP256D<br>
  CYGP 120649z VRB02KT 15SM - SN OVC020 M05/M10 A3027 RMK SC8 SLP255<br>
  CYGP 120700z 30002KT 15SM - SN OVC015 M06/M10 A3027 RMK SC8 SLP254<br>
  CYGP 120741z 00000KT 7SM - SN OVCO10 M06/M08 A3024 RMK SC8 SLP244<br>
  CYGP 120800z 26002KT 3SM - SN OVCO10 M06/M08 A3023 RMK SC8 /S01/ SLP240<br>
  CYGP 120900Z CA 26004KT 3SM - SN OVC012 M06/M07 A3021 RMK SC8 /S02/ SLP234<br>
  CYGP 120945Z 26004KT 1M - SN OVC008 M06/MO7 A3019 RMK SC8 SLP226<br>
  CYGP 121000Z 27002KT 1SM - SN OVCO8 M06/M07 A3016 RMK SC8 /S04/ PRESFR SLP218<br>
  CYGP 121100Z 27002KT 3/4SM-SN OVC008 M06/M07 A3014 RMK SC8 /S06/ SLP211<br>
  CYGP 121127Z 26003KT 3/4SM -SN OVC010 M06/MO7 A3012 RMK SC8 SLP204<br>
  CYGP 121143Z 26003KT 3/8SM SN OVCO03 M06/M07 A3013 RMK SC8 SLP205<br>
  CYGP 121200Z 25003KT 3/8SM SN VVO03 M06/MO7 A3011 RMK SN8 /S09/ PRESFR SLP199<br>`,

  cyhz:
  `CYHZ 120000Z 05007KT 15SM SCT044 BKN078 02/MO1 A3023 RMK SC3AC3 SLP244<br>
  CYHZ 120100Z 07008KT 15SM OVC044 02/M02 A3024 RMK SC8 SLP246<br>
  CYHZ 120200Z 08008KT 15SM OVC025 02/M02 A3023 RMK SC8 SLP244<br>
  CYHZ 120243Z 07006KT 15SM OVC014 02/M02 A3023 RMK SC8 SLP243<br>
  CYHZ 120300Z 07008KT 15SM OVC013 02/M02 A3023 RMK SC8 SLP243<br>
  CYHZ 120400Z 10010KT 15SM OVC011 o2/M02 A3021 RMK SC8 SLP236<br>
  CYHZ 120438Z 11011KT 15SM OVC009 02/M01 A3018 RMK SC8 SLP228<br>
  CYHZ 120500z 12012KT 15SM OVC008 02/MO1 A3016 RMK ST8 PRESFR SLP220<br>
  CYHZ 120600z 12015KT 15SM OVC008 O3/01 A3012 RMK SF8 SLP207<br>
  CYHZ 120632Z 14010G18KT 15SM OVCO5 04/02 A3011 RMK SF8 SLP202<br>
  CYHZ 120700z 14012KT 15SM OVC004 05/03 A3009 RMK SF8 SLP197<br>
  CYHZ 120800z 14008KT 15SM BKNO05 0VC015 07/05 A3006 RMK SF7SC1 SLP183<br>
  CYHZ 120900Z 14015G21KT 15SM OVC008 09/06 A3001 RMK SF8 PRESFR SLP167<br>
  CYHZ 120909Z 15017G23KT 10SM -RA OVC008 09/06 A3000 RMK ST8 PRESFR SLP164<br>
  CYHZ 120948Z 14020G27KT 15SM OVCO08 09/07 A2995 RMK SF8 SLP149<br>
  CYHZ 121000z 14018G25KT 15SM OVCO8 09/07 A2994 RMK SF8 PRESFR SLP143<br>
  CYHZ 121044Z 15015G23KT 10SM -RA OVC006 10/08 A2993 RMK NS8 SLP141<br>
  CYHZ 121100z 15017G26KT 3SM RA BR ovC006 10/08 A2991 RMK NS8 PRESFR SLP135<br>
  CYHZ 121114Z 14018G25KT 3SM - RA BR OvC005 10/09 A2990 RMK NS8 PRESFR SLP131<br>
  CYHZ 12120oZ 15019G27KT 2 1/2SM -RA BR OVC05 11/10 A2986 RMK NS8 PRESFR SLP118<br>`,

  cwsa:
  `CWSA 120000Z AUTO 26004KT 2SM BR SCT027 OVC033 9.7/8.3 A3024 RMK SLP241<br>
  CWSA 120007Z AUTO 26005KT 2 1/2SM BR BKN025 OVC033 9.5/8.1 A3024 RMK SLP241<br>
  CWSA 120010Z AUTO 26005KT 3SM BR BKNO25 OVC033 9.4/7.9 A3024 RMK SLP241<br>
  CWSA 120031Z AUTO 27004KT 6SM BR BKN025 BKN033 9.5/7.8 A3025 RMK SLP244<br>
  CWSA 120046Z AUTO 27004KT 5SM BR BKN028 9.1/7.2 A3026 RMK SLP247<br>
  CWSA 120058Z AUTO 28004KT 6SM BR SCT030 8.7/6.8 A3026 RMK SLP247<br>
  CWSA 120100Z AUTO 28004KT 6SM BR SCT030 8.7/6.8 A3026 RMK SLP247<br>
  CWSA 120116Z AUTO 28003KT 5SM BR FEWO30 7.3/5.8 A3026 RMK SLP247<br>
  CWSA 120149Z AUTO 25002KT 2 1/2SM BR CLR 6.4/5.6 A3027 RMK SLP250<br>
  CWSA 120153Z AUTO 25002KT 2 1/4SM BR CLR 5.8/4.9 A3027 RMK SLP250<br>
  CWSA 120200Z AUTO 26002KT 1 1/2SM BR CLR 5.0/4.3 A3027 RMK SLP249<br>
  CWSA 120202Z AUTO 26002KT 1 1/4SM BR CLR 5.1/4.4 A3027 RMK SLP250<br>
  CWSA 120300Z AUTO 0000OKT 3/4SM BR FENO23 4.3/3.8 A3027 RMK SLP251<br>
  CWSA 120307Z AUTO 0000OKT 1SM BR BKNO21 3.4/2.8 A3027 RMK SLP252<br>
  CWSA 120353Z AUTO 11003KT 3/4SM BR SCT021 OVC027 4.2/3.8 A3027 RMK SLP250<br>
  CWSA 120400z AUTO 11003KT 3/4SM BR SCTO21 BKN027 4.7/4.3 A3027 RMK SLP251<br>
  CWSA 120443Z AUTO 17004KT 1 1/2SM BR BKN220 4.5/4.1 A3027 RMK SLP251<br>
  CWSA 120448Z AUTO 18005KT 2 1/2SM BR SCT220 6.3/6.0 A3027 RMK SLP252<br>
  CWSA 120452Z AUTO 18005KT 3SM BR SCT220 6.9/6.6 A3027 RMK SLP251<br>
  CWSA 120500Z AUTO 17006KT 3SM BR FEW210 8.3/8.0 A3027 RMK SLP250<br>
  CWSA 120532Z AUTO 17007KT 6SM BR CLR 9.2/7.8 A3027 RMK SLP249<br>
  CWSA 120542Z AUTO 17007KT 5SM BR FEW210 9.3/7.8 A3027 RMK SLP249<br>
  CWSA 120600Z AUTO 17006KT 5SM BR SCT210 9.4/7.9 A3026 RMK SLP248<br>
  CWSA 120611z AUTO 17007KT 6SM BR SCT210 9.3/7.8 A3026 RMK SLP246<br>
  CWSA 120623Z AUTO 15006KT 5SM BR CLR 9.3/7.9 A3024 RMK PRESFR SLP242<br>
  CWSA 120700Z AUTO 14008KT 3SM BR CLR 9.3/7.6 A3024 RMK SLP239<br>
  CWSA 120800Z AUTO 14012KT 5SM BR CLR 9.6/7.7 A3022 RMK SLP232<br>
  CWSA 120900Z AUTO 1301OKT 5SM BR 0VC033 10.0/8.1 A3020 RMK SLP228<br>
  CWSA 120953Z AUTO 13013KT 6SM BR BKN033 9.9/7.7 A3018 RMK SLP220<br>
  CWSA 121000Z AUTO 13013KT 6SM BR BKNO33 9.9/7.9 A3018 RMK SLP219<br>
  CWSA 121100Z AUTO 13015G20KT 6SM BR FENO33 10.4/8.5 A3015 RMK SLP211<br>
  CWSA 121200Z AUTO 14018G23KT 6SM BR FEN042 11.6/9.7 A3013 RMK SLP204 MAX WND 14019KT AT 1140Z<br>`,

  cycx:
  `CYCX 120000z AUTO 04004KT 350V050 9SM OVC049 MO1/M10 A3027 RMK SLP252<br>
  CYCX 120046z AUTO 04004KT 010V070 9SM OVC020 MO2/M10 A3026<br>
  CYCX 120100Z AUTO 04005KT 360V060 9SM OVC020 OVC070 MO2/M08 A3026 RMK SLP251<br>
  CYCX 120122z AUTO 02004KT 340V070 2 1/2SM OVC018 OVC070 M03/M07 A3027 RMK VSBY VRBL 1.7V7.0<br>
  CYCX 120134Z AUTO 02006KT 1 3/4SM - SN OVC016 OVC070 MO3/M06 A3028<br>
  CYCX 120137z AUTO 03006KT 350V050 1 3/4SM - SN VVO14 MO3/M06 A3028<br>
  CYCX 120153Z AUTO 06007KT 020V080 1 1/4SM - SN VVo10 MO3/M06 A3026<br>
  CYCX 120200z AUTO 05006KT 3/4SM - SN VV010 MO3/M05 A3026 RMK SLP250<br>
  CYCX 120208Z AUTO 05006KT 3/4SM - SN VV009 M04/M05 A3025<br>
  CYCX 120234z AUTO 04010KT 1 1/2SM - SN VV008 M04/M05 A3023<br>
  CYCX 120249z AUTO 06006KT 020V080 1 1/4SM -SN VVo09 M04/M05 A3022<br>
  CYCX 120254Z AUTO 05007KT 020V080 3/4SM - SN Vvo09 M04/MO5 A3022<br>
  CYCX 120259z AUTO 04005KT 5/8SM - SN VV007 MO4/M05 A3022<br>
  CYCX 120300z AUTO 04006KT 5/8SM - SN VV007 MO4/M05 A3022 RMK SLP235<br>
  CYCX 120522z AUTO 07007KT 2 1/2SM BKNO09 OVC021 OVC031 MO3/M04 A3015<br>
  CYCX 120524Z AUTO 07007KT 2 1/2SM OVCo10 ovco28 MO3/M04 A3014<br>
  CYCX 120529z AUTO 05006KT 030V090 5SM OVC010 0OVC028 M03/M04 A3014<br>
  CYCX 120532z AUTO 05007KT 030V090 6SM OVC009 OVC028 MO3/M04 A3014<br>
  CYCX 120551Z AUTO 06008KT 020V090 6SM - SN OVC009 OVC026 M03/M04 A3011l<br>
  CYCX 120600z AUTO 05007KT 020V090 6SM - SN OVC008 OVC024 M03/M04 A3010 RMK SLP195<br>
  CYCX 120603Z AUTO 06008KT 020V090 6SM -RA OVC008 OVC024 OVC029 M03/M04 A3010<br>
  CYCX 120619z AUTO 06009G16KT 030V090 9SM OVCO09 M03/M04 A3008<br>
  CYCX 120622z AUTO 07008G16KT 030VO90 9SM OVCO11 MO3/M04 A3007<br>
  CYCX 120651Z AUTO 07012G19KT 360V100 9SM OVCO09 M03/M04 A3005<br>
  CYCX 120658Z AUTO 07011G18KT 030V100 9SM -RA OoVco08 MO3/M04 A3004<br>
  CYCX 120700z AUTO 08014KT 030V100 9SM -RA OVC008 M03/M04 A3004 RMK PRESFR SLP175<br>
  CYCX 120716z AUTO 07012G17KT 6SM - FZRA OVC007 M02/M04 A3003 RMK ICG<br>
  CYCX 120800z AUTO 07011G19KT 030V100 5SM -FZRA OVC007 MO2/M03 A2999 RMK ICG PCPN 0.5MM PAST HR SLP158<br>
  CYCX 120829z AUTO 04006G15KT 2 1/2SM -FZRA OVC005 MO2/M02 A2997 RMK ICG<br>
  CYCX 120845Z 04011KT 020vo80 2 1/2SMPL-FZRA BR ovc005 -2.1/-2.8 A2994 RMK ST8 DA-1855FT FST STFD OBS SLP142 SKYXX<br>
  CYCX 120900z 05009KT 020V100 2 1/2SM -FZRA BR ovc04 -2.0/-2.6 A2992 RMK ST8 DA-1818FT SLP135 57060 SKYXX<br>
  CYCX 120913Z 05009KT 020V100 6SM - FZRA BR OVC005 -2.0/-2.6 A2990 RMK ST8 DA-1795FT PRESFR SLP130 SKYXX<br>
  CYCX 121000z 04011KT 6SM -FZRA BR ovc004 -2.0/-2.6 A2985 RMK ST8 DA-11737FT PRESFR SLP112 SKYXX<br>
  CYCX 121100Z 04007KT 360V060 6SM - FZRA BR OVC004 -2.0/-2.4 A2983 RMK ST8 DA-1713FT VIS VRB 4-8 SLP103 SKYXX<br>
  CYCX 121139z 03009KT 350V090 3SM - FZRA BR OVC003 -1.8/-2.0 A2980 RMK ST8 DA-1650FT VIS VRB 2-4 SLP094 SKYXX<br>
  CYCX 121200z CA 05008KT 3SM -FZRA BR OVC003 -1.7/-1.9 A2979 RMK ST8 DA-1625FT VIS VRB 2-4 SLP090 57044 SKYXX<br>`,

  cyay:
  `CYAY 120000z AUTO 27016G22KT 9SM CLR -5.4/-11.8 A3004 RMK SLP174 MAX WND 26018KT AT 2338Z ICG<br>
  CYAY 120100z AUTO 26018G25KT 9SM CLR -5.3/-11.1 A3008 RMK SLP187 MAX WND 26021KT AT 0057Z ICG INTMT<br>
  CYAY 120200Z AUTO 27017G23KT 9SM CLR -6.0/-12.2 A3011 RMK SLP200 MAX WND 27022KT AT 0120Z ICG<br>
  CYAY 120300z AUTO 27016G22KT 9SM CLR -6.3/-12.0 A3014 RMK SLP207 MAX WND 26018KT AT 0248Z ICG<br>
  CYAY 120400Z AUTO 25012KT 9SM CLR -7.0/-12.1 A3017 RMK SLP218 MAX WND 26020KT AT 0306Z ICG<br>
  CYAY 120500Z AUTO 24011KT 9SM CLR -7.0/-11.6 A3018 RMK SLP223 ICG<br>
  CYAY 120600Z AUTO 17003KT 150V240 9SM CLR -7.8/-11.7 A3020 RMK SLP228 ICG INTMT<br>
  CYAY 120700Z AUTO 20007KT 9SM CLR -7.5/-11.3 A3023 RMK SLP239 ICG<br>
  CYAY 120800z AUTO 20009KT 9SM CLR -7.4/-10.8 A3026 RMK SLP248 ICG<br>
  CYAY 120900Z AUTO 18005KT 9SM CLR -8.6/-11.3 A3027 RMK SLP255 ICG<br>
  CYAY 121000Z AUTO 20007KT 9SM CLR -7.5/-10.7 A3028 RMK SLP256 ICG<br>
  CYAY 121100z AUTO 20005KT 9SM SCT180 -8.6/-10.8 A3030 RMK SLP264 ICG<br>
  CYAY 121200Z AUTO VRBO2KT 9SM CLR -7.6/-10.2 A3029 RMK SLP262 ICG INTMT<br>`,

  cybg:
  `CYBG 120000z 00000KT 25SM FEWO10 BKN030 OVC110 -11.1/-13.1 A3031 RMK ScisC6AS2 MOON DIMLY VISBL SLP277 50003 SKY9X<br>
  CYBG 120100z 00000KT 25SM OVC085 -10.4/-12.6 A3028 RMK AS8 MOON DIMLY VISBL SLP268 SKY9X<br>
  CYBG 120200z 18002KT 25SM OVC085 -10.6/-12.3 A3027 RMK AS8 MOON DIMLY VISBL SLP266 SKY9X<br>
  CYBG 120300Z 00000KT 20SM OVC070 -10.5/-12.3 A3027 RMK AS8 MOON DIMLY VISBL SLP263 56013 SKY9X<br>
  CYBG 120334Z 00000KT 2 1/2SM - SN OVC025 -10.3/-12.4 A3026 RMK SC8 SLP260 SKYXX<br>
  CYBG 120400Z 00000KT 2SM - SN OVC025 -10.3/-12.3 A3025 RMK SC8 SLP257 SKYXX<br>
  CYBG 120500Z CA 00000KT 2SM - SN OVC025 -10.4/-11.9 A3022 RMK SC8 /S01/ SLP247 SKYXX<br>
  CYBG 120600Z 27002KT 2SM - SN OVCO25 -10.4/-11.8 A3018 RMK SC8 SLP233 58029 SKYXX<br>
  CYBG 120700z 00000KT 1 1/2SM -SN OVC022 -10.3/-11.8 A3015 RMK SC8 VIS VRB 1-2 SLP222 SKYXX<br>
  CYBG 120800z 00000KT 1 1/2SM -SN OVC022 -10.3/-11.7 A3010 RMK SC8 VIS VRB 1-2 /S01/ SLP208 SKYXXD <br>
  CYBG 120900z 00000KT 1 1/2SM -SN OVC022 -10.3/-11.7 A3007 RMK SC8 VIS VRB 1-2 /S02/ SLP197 58036 SKYXX<br>
  CYBG 121000Z 29003KT 1 1/2SM -SN oVC018 -10.2/-11.6 A3003 RMK SN5SC3 VIS VRB 1-2 SLP182 SKYXX<br>
  CYBG 121013Z 29003KT 1SM R11/3000FT - SN OVCO18 -10.2/-11.6 A3002 RMK SN6SC2 VIS VRB 3/4-1 l/2 SLP178 SKYXX<br>
  CYBG 121100z 27003KT 3/4SM R11/22O0FT -SN VVO04 -10.2/-1l.6 A2999 RMK SN8 VIS VRB 1/2-1 /SO4/ SLP168 SKYXX<br>
  CYBG 121137z 29003KT 1/2SM R11/2600FT SN VV004 -10.1/-11.4 A2996 RMK SN8 VIS VRB 1/4-3/4 SLP159 SKYXX<br>
  CYBG 121200z 27003KT 1/2SM R11/2800FT SN VV004 -10.0/-11.3 A2995 RMK SN8 VIS VRB 1/4-3/4 /S05/ SLP157 57039 SKYXX<br>
  `,

  cybc:
  `CYBC 120000z AUTO 29004KT 9SM CLR -6.2/-11.4 A3030 RMK SLP263<br>
  CYBC 120100z AUTO 29004KT 9SM BKN130 -6.8/-11.2 A3030 RMK SLP264<br>
  CYBC 120200z AUTO 34006KT 300V020 9SM OVC110 -6.4/-11.2 A3029 RMK SLP259<br>
  CYBC 120300z AUTO 36005KT 9SM OVC100 -6.6/-11.0 A3029 RMK SLP259<br>
  CYBC 120400z AUTO 01006KT 9SM OVCO90 -6.6/-10.6 A3028 RMK SLP256<br>
  CYBC 120500z AUTO 03006KT 9SM OVCO75 -6.2/-10.5 A3028 RMK SLP257<br>
  CYBC 120600z AUTO 03005KT 9SM BKNO44 BKN060 OVC070 -6.0/-9.9 A3025 RMK SLP247<br>
  CYBC 120606z AUTO 03005KT 9SM - SN BKN038 OVC060 -6.0/-9.9 A3025 RMK SLP247<br>
  CYBC 120639z AUTO 03006KT 9SM BKNO48 OVC055 -5.7/-9.8 A3024 RMK SLP244<br>
  CYBC 120641z AUTO 03005KT 9SM - SN BKN048 OVC055 -5.8/-9.7 A3024 RMK SLP244<br>
  CYBC 120700z AUTO 03006KT 9SM - SNOVC044 -5.8/-9.8 A3024 RMK SLP243<br>
  CYBC 120718Z AUTO 03008KT 5SM - SNOVC028 5.7/-9.5 A3024 RMK SLP242<br>
  CYBC 120724Z AUTO 03008KT 3SM - SNOVC024 -5.8/-9.2 A3024 RMK SLP241<br>
  CYBC 120725z AUTO 03008KT 2 1/2SM - SN OVC024 -5.8/-9.1 A3023 RMK SLP240 VIS VRB 1 3/4-3<br>
  CYBO 120747z AUTO 05009KT 1 3/4SM - SN OVC016 -6.0/-8.3 A3022 RMK PRESFR SLP236<br>
  CYBO 120800z AUTO 04007KT 1 1/2SM - SN OVC016 -6.1/-7.9 A3021 RMK SLP232<br>
  CYBC 120810z AUTO 05009KT 2SM - SN oVC016 -6.1/-7.9 A3021 RMK SLP233<br>
  CYBO 120838Z AUTO 04011KT 1 3/4SM- SN BKN012 OVC019 -6.0/-7.5 A3019 RMK SLP224<br>
  CYBO 120900z AUTO 04009KT 1 3/4SM - SN BKN010 OVC020 -6.2/-7.6 A3017 RMK SLP219<br>
  CYBO 121000z AUTO 05013KT 1 1/4SM - SN OVC010 -6.2/-7.6 A3014 RMK PRESFR SLP208<br>
  CYBO 121100z AUTO 05013G18KT 1SM R10/4000FT/N - SN OVC010 -6.0/-7.2 A3011 RMK SLP198<br>
  CYBO 121200z AUTO 04014G21KT 1SM R10/4500FT/N - SN OVC008 -6.3/-7.3 A3007 RMK SLP185 PCPN 0.5MM PAST HR<br>`,

  cybx:
  `CYBX 120000Z 27016KT 15SM FEWO30 M06/M13 A3009 RMK SC1 SLP192<br>
  CYBX 120100z 28013G20KT 15SM FENO30 M07/M13 A3012 RMK SCl sC TR SLP203<br>
  CYBX 120200z 29010G20KT 15SM FEWO30 MO7/M13 A3014 RMK SC1 SC TR SLP212<br>
  CYBX 120300Z 27009G17KT 15SM SKC MO7/M13 A3016 RMK SLP217<br>
  CYBX 120400z 26011KT 15SM SKC MO7/M13 A3018 RMK SLP225<br>
  CYBX 120500Z 27010G16KT 15SM SKC MO7/M12 A3020 RMK SLP230<br>
  CYBX 120600z 27009KT 15SM SKC MO7/M12 A3021 RMK SLP233<br>
  CYBX 120700Z 27009G16KT 15SM SKC M07/M12 A3024 RMK SLP245<br>
  CYBX 120800Z 28006KT 15SM SKC MO8/M12 A3025 RMK SLP249<br>
  CYBX 120900Z 27007KT 15SM SCT250 M07/M12 A3027 RMK CI3 SLP256<br>
  CYBX 121000Z 29007KT 15SM BKN170 M07/M11 A3028 RMK AC5 SLP258<br>
  CYBX 121100Z 31005KT 15SM FEWO25 BKN170 M08/M1l A3030 RMK CULAS5 SLP264<br>
  CYBX 121200Z 03003KT 31oV040 15SM FEWO25 BKN170 M08/M11 A3030 RMK CU1AS5 SLP265<br>`
} 